STARLINK-5069           
1 55640U 23021N   26068.69807820 -.00000186  00000+0 -78334-5 0  9996
2 55640  70.0013 184.3951 0003256 267.8989  92.1798 14.98330184168797
LEMUR-2-MARACHE-FRAN    
1 63262U 25052BE  26068.70885648  .00008220  00000+0  68460-3 0  9999
2 63262  97.6985 323.5335 0002324  45.7689 314.3725 14.98898773 53859
